; Convertido desde bibliotecacuc.gc por herramientas/convertir_gcode_laser.py
; Pluma abajo=Z0.0 arriba=Z10.0 -- valores de PRUEBA, calibrar fisicamente
G21
G90
G1 Z10.0 F300
G4 P0.3
G0 X10.00 Y140.18
G1 Z0.0 F300
G4 P0.3
G1 X10.00 Y140.18 F800
G1 X10.00 Y72.68 F800
G1 X59.02 Y73.48 F800
G1 X59.02 Y73.48 F800
G1 Z10.0 F300
G4 P0.3
G0 X74.29 Y23.64
G1 Z0.0 F300
G4 P0.3
G1 X74.29 Y23.64 F800
G1 X74.29 Y44.54 F800
G1 X91.96 Y44.54 F800
G1 X91.96 Y23.64 F800
G1 X91.96 Y23.64 F800
G1 Z10.0 F300
G4 P0.3
G0 X135.49 Y45.36
G1 Z0.0 F300
G4 P0.3
G1 X135.49 Y45.36 F800
G1 X117.81 Y45.36 F800
G1 X117.81 Y24.46 F800
G1 X135.49 Y24.46 F800
G1 X135.49 Y24.46 F800
G1 Z10.0 F300
G4 P0.3
G0 X173.93 Y45.36
G1 Z0.0 F300
G4 P0.3
G1 X173.93 Y45.36 F800
G1 X156.25 Y45.36 F800
G1 X156.25 Y24.46 F800
G1 X173.93 Y24.46 F800
G1 X173.93 Y24.46 F800
G1 Z10.0 F300
G4 P0.3
G0 X190.00 Y136.96
G1 Z0.0 F300
G4 P0.3
G1 X190.00 Y136.96 F800
G1 X58.21 Y136.96 F800
G1 X59.82 Y10.00 F800
G1 X190.00 Y11.61 F800
G1 X190.00 Y11.61 F800
G1 Z10.0 F300
G4 P0.3
G0 X109.64 Y82.32
G1 Z0.0 F300
G4 P0.3
G1 X109.64 Y82.32 F800
G1 X149.82 Y82.32 F800
G1 X149.77 Y136.96 F800
G1 X149.77 Y136.96 F800
G1 Z10.0 F300
G4 P0.3
G0 X0 Y0
