; CultuBot - dibujo basico de una taza de cafe
; XY solamente - sin eje Z
; X solo creciente / Y bidireccional
; Tamano aproximado: 140 x 80 mm
G21
G90
G0 X100 Y170 F300

; Taza
G1 X100 Y125 F300
G1 X105 Y120 F300
G1 X180 Y120 F300
G1 X180 Y160 F300
G1 X185 Y165 F300
G1 X190 Y168 F300
G1 X195 Y170 F300

; Asa estilizada hacia la derecha
G1 X200 Y168 F300
G1 X205 Y162 F300
G1 X210 Y152 F300
G1 X215 Y140 F300
G1 X220 Y132 F300
G1 X225 Y128 F300
G1 X230 Y130 F300
G1 X235 Y138 F300
G1 X240 Y150 F300
G1 X245 Y160 F300
G1 X250 Y165 F300

; Vapor 1
G1 X255 Y115 F300
G1 X255 Y105 F300
G1 X260 Y98 F300
G1 X260 Y90 F300

; Vapor 2
G1 X265 Y115 F300
G1 X265 Y105 F300
G1 X270 Y98 F300
G1 X270 Y90 F300

; Vapor 3
G1 X275 Y115 F300
G1 X275 Y105 F300
G1 X280 Y98 F300
G1 X280 Y90 F300

M2

