%
; CultuBot - Cerro de Tasajero
; Norte de Santander, Colombia
; Dibujo basico de paisaje
; XY solamente - sin eje Z
; X solo creciente / Y bidireccional
; X maximo: 280 mm
G21
G90
G0 X100 Y105 F300

; Silueta principal del cerro, izquierda a derecha
G1 X100 Y110 F300
G1 X110 Y116 F300
G1 X120 Y128 F300
G1 X130 Y142 F300
G1 X140 Y158 F300
G1 X150 Y174 F300
G1 X160 Y184 F300
G1 X170 Y177 F300
G1 X180 Y164 F300
G1 X190 Y150 F300
G1 X200 Y140 F300
G1 X210 Y132 F300
G1 X220 Y124 F300
G1 X230 Y118 F300
G1 X240 Y114 F300
G1 X250 Y116 F300
G1 X260 Y122 F300
G1 X270 Y128 F300
G1 X280 Y134 F300

; Relieve interior
G0 X100 Y112 F300
G1 X110 Y110 F300
G1 X120 Y116 F300
G1 X130 Y126 F300
G1 X140 Y138 F300
G1 X150 Y150 F300
G1 X160 Y160 F300
G1 X170 Y156 F300
G1 X180 Y146 F300
G1 X190 Y136 F300
G1 X200 Y130 F300
G1 X210 Y124 F300
G1 X220 Y120 F300
G1 X230 Y118 F300
G1 X240 Y120 F300
G1 X250 Y125 F300
G1 X260 Y132 F300
G1 X270 Y138 F300
G1 X280 Y144 F300

; Linea de base
G0 X100 Y105 F300
G1 X120 Y108 F300
G1 X140 Y105 F300
G1 X160 Y108 F300
G1 X180 Y105 F300
G1 X200 Y108 F300
G1 X220 Y105 F300
G1 X240 Y108 F300
G1 X260 Y105 F300
G1 X280 Y108 F300

; Vegetacion estilizada
G0 X105 Y108 F300
G1 X108 Y118 F300
G1 X111 Y108 F300
G1 X114 Y118 F300
G1 X117 Y108 F300
G1 X120 Y118 F300
G1 X123 Y108 F300
G1 X126 Y118 F300
G1 X129 Y108 F300
G1 X132 Y118 F300

M2
%