; CultuBot - Locomotora compacta
; XY solamente - sin eje Z
; X solo creciente / Y bidireccional
; Limite maximo de X: 280 mm
; Limite maximo de Y: 200 mm
; Dibujo aproximado: 180 x 100 mm
; Solo G01

G21
G90
G0 X100.000 Y110 F300

; --- Chasis y cuerpo ---
G1 X100.000 Y120 F300
G1 X103.214 Y125 F300
G1 X103.214 Y155 F300
G1 X106.429 Y160 F300
G1 X141.786 Y160 F300
G1 X145.000 Y155 F300
G1 X145.000 Y125 F300
G1 X148.214 Y120 F300
G1 X167.500 Y120 F300
G1 X173.929 Y125 F300
G1 X180.357 Y135 F300
G1 X186.786 Y135 F300
G1 X190.000 Y145 F300
G1 X193.214 Y155 F300
G1 X196.429 Y160 F300

; --- Cabina ---
G1 X199.643 Y165 F300
G1 X199.643 Y175 F300
G1 X202.857 Y180 F300
G1 X218.929 Y180 F300
G1 X222.143 Y175 F300
G1 X222.143 Y125 F300
G1 X225.357 Y120 F300

; --- Techo ---
G1 X228.571 Y125 F300
G1 X231.786 Y180 F300
G1 X235.000 Y185 F300
G1 X238.214 Y180 F300

; --- Chimenea ---
G1 X241.429 Y170 F300
G1 X241.429 Y182 F300
G1 X244.643 Y187 F300
G1 X247.857 Y182 F300
G1 X247.857 Y170 F300

; --- Faro ---
G1 X251.071 Y160 F300
G1 X251.071 Y170 F300
G1 X254.286 Y175 F300
G1 X257.500 Y170 F300
G1 X260.714 Y165 F300

; --- Ruedas ---
G1 X263.929 Y110 F300
G1 X267.143 Y100 F300
G1 X270.357 Y95 F300
G1 X273.571 Y100 F300
G1 X276.786 Y110 F300

; --- Humo ---
G1 X276.786 Y175 F300
G1 X276.786 Y185 F300
G1 X280.000 Y190 F300
G1 X280.000 Y180 F300

M2

