; Convertido desde historicocuc.gc por herramientas/convertir_gcode_laser.py
; Pluma abajo=Z0.0 arriba=Z10.0 -- valores de PRUEBA, calibrar fisicamente
G21
G90
G1 Z10.0 F300
G4 P0.3
G0 X58.81 Y10.00
G1 Z0.0 F300
G4 P0.3
G1 X58.81 Y10.00 F800
G1 X104.58 Y86.27 F800
G1 X104.58 Y86.27 F800
G1 Z10.0 F300
G4 P0.3
G0 X96.95 Y116.78
G1 Z0.0 F300
G4 P0.3
G1 X96.95 Y116.78 F800
G1 X77.12 Y116.78 F800
G1 X77.12 Y100.00 F800
G1 X96.95 Y100.00 F800
G1 X96.95 Y100.00 F800
G1 Z10.0 F300
G4 P0.3
G0 X21.44 Y100.00
G1 Z0.0 F300
G4 P0.3
G1 X21.44 Y100.00 F800
G1 X21.44 Y116.78 F800
G1 X41.27 Y116.78 F800
G1 X41.27 Y100.00 F800
G1 X41.27 Y100.00 F800
G1 Z10.0 F300
G4 P0.3
G0 X42.03 Y139.66
G1 Z0.0 F300
G4 P0.3
G1 X42.03 Y139.66 F800
G1 X77.12 Y139.66 F800
G1 X76.60 Y190.00 F800
G1 X76.60 Y190.00 F800
G1 Z10.0 F300
G4 P0.3
G0 X104.58 Y86.27
G1 Z0.0 F300
G4 P0.3
G1 X104.58 Y86.27 F800
G1 X10.00 Y86.27 F800
G1 X11.53 Y190.00 F800
G1 X104.58 Y190.00 F800
G1 X104.58 Y190.00 F800
G1 Z10.0 F300
G4 P0.3
G0 X0 Y0
